$GPGGA,010000.00,3231.7274,N,11659.2914,W,1,09,0.9,140.0,M,-34.0,M,,*51
$GPRMC,010000.00,A,3231.7274,N,11659.2914,W,0.00,,051026,,,A*52
$GPGGA,010020.00,3231.7430,N,11659.0280,W,1,09,0.9,143.0,M,-34.0,M,,*52
$GPRMC,010020.00,A,3231.7430,N,11659.0280,W,9.72,84.0,051026,,,A*4C
$GPGGA,010040.00,3231.7652,N,11658.7580,W,1,09,0.9,146.0,M,-34.0,M,,*56
$GPRMC,010040.00,A,3231.7652,N,11658.7580,W,17.28,84.0,051026,,,A*7D
$GPGGA,010100.00,3231.7910,N,11658.4940,W,1,09,0.9,149.0,M,-34.0,M,,*56
$GPRMC,010100.00,A,3231.7910,N,11658.4940,W,20.52,84.0,051026,,,A*7B
$GPGGA,010120.00,3231.8180,N,11658.2300,W,1,09,0.9,152.0,M,-34.0,M,,*58
$GPRMC,010120.00,A,3231.8180,N,11658.2300,W,22.68,84.0,051026,,,A*74
$GPGGA,010140.00,3231.8450,N,11657.9660,W,1,09,0.9,155.0,M,-34.0,M,,*56
$GPRMC,010140.00,A,3231.8450,N,11657.9660,W,24.30,84.0,051026,,,A*76
$GPGGA,010200.00,3231.8720,N,11657.7020,W,1,09,0.9,158.0,M,-34.0,M,,*54
$GPRMC,010200.00,A,3231.8720,N,11657.7020,W,25.38,84.0,051026,,,A*70
$GPGGA,010220.00,3231.9008,N,11657.4380,W,1,09,0.9,161.0,M,-34.0,M,,*5A
$GPRMC,010220.00,A,3231.9008,N,11657.4380,W,23.76,84.0,051026,,,A*78
$GPGGA,010240.00,3231.9290,N,11657.1740,W,1,09,0.9,164.0,M,-34.0,M,,*57
$GPRMC,010240.00,A,3231.9290,N,11657.1740,W,21.60,84.0,051026,,,A*75
$GPGGA,010300.00,3231.9590,N,11656.9160,W,1,09,0.9,167.0,M,-34.0,M,,*5B
$GPRMC,010300.00,A,3231.9590,N,11656.9160,W,20.52,84.0,051026,,,A*7A
$GPGGA,010320.00,3231.9860,N,11656.6580,W,1,09,0.9,170.0,M,-34.0,M,,*58
$GPRMC,010320.00,A,3231.9860,N,11656.6580,W,19.44,84.0,051026,,,A*72
$GPGGA,010340.00,3232.0160,N,11656.4060,W,1,09,0.9,173.0,M,-34.0,M,,*57
$GPRMC,010340.00,A,3232.0160,N,11656.4060,W,17.82,84.0,051026,,,A*7A
$GPGGA,010400.00,3232.0430,N,11656.1600,W,1,09,0.9,176.0,M,-34.0,M,,*54
$GPRMC,010400.00,A,3232.0430,N,11656.1600,W,15.12,84.0,051026,,,A*77
$GPGGA,010420.00,3232.0688,N,11655.9440,W,1,09,0.9,179.0,M,-34.0,M,,*55
$GPRMC,010420.00,A,3232.0688,N,11655.9440,W,11.88,84.0,051026,,,A*7E
$GPGGA,010440.00,3232.0910,N,11655.7820,W,1,09,0.9,182.0,M,-34.0,M,,*5D
$GPRMC,010440.00,A,3232.0910,N,11655.7820,W,6.48,84.0,051026,,,A*48
$GPGGA,010500.00,3232.1174,N,11655.6608,W,1,09,0.9,185.0,M,-34.0,M,,*51
$GPRMC,010500.00,A,3232.1174,N,11655.6608,W,0.00,84.0,051026,,,A*49
