{
  "type": "FeatureCollection",
  "features": [
    {
      "type": "Feature",
      "geometry": {
        "type": "Point",
        "coordinates": [
          -116.98819,
          32.52879
        ]
      },
      "properties": {
        "timestamp": "2026-10-04T18:00:00",
        "speed_kmh": 0,
        "vehicle_id": "AUTO-DEMO-01"
      }
    },
    {
      "type": "Feature",
      "geometry": {
        "type": "Point",
        "coordinates": [
          -116.9838,
          32.52905
        ]
      },
      "properties": {
        "timestamp": "2026-10-04T18:00:20",
        "speed_kmh": 18,
        "vehicle_id": "AUTO-DEMO-01"
      }
    },
    {
      "type": "Feature",
      "geometry": {
        "type": "Point",
        "coordinates": [
          -116.9793,
          32.52942
        ]
      },
      "properties": {
        "timestamp": "2026-10-04T18:00:40",
        "speed_kmh": 32,
        "vehicle_id": "AUTO-DEMO-01"
      }
    },
    {
      "type": "Feature",
      "geometry": {
        "type": "Point",
        "coordinates": [
          -116.9749,
          32.52985
        ]
      },
      "properties": {
        "timestamp": "2026-10-04T18:01:00",
        "speed_kmh": 38,
        "vehicle_id": "AUTO-DEMO-01"
      }
    },
    {
      "type": "Feature",
      "geometry": {
        "type": "Point",
        "coordinates": [
          -116.9705,
          32.5303
        ]
      },
      "properties": {
        "timestamp": "2026-10-04T18:01:20",
        "speed_kmh": 42,
        "vehicle_id": "AUTO-DEMO-01"
      }
    },
    {
      "type": "Feature",
      "geometry": {
        "type": "Point",
        "coordinates": [
          -116.9661,
          32.53075
        ]
      },
      "properties": {
        "timestamp": "2026-10-04T18:01:40",
        "speed_kmh": 45,
        "vehicle_id": "AUTO-DEMO-01"
      }
    },
    {
      "type": "Feature",
      "geometry": {
        "type": "Point",
        "coordinates": [
          -116.9617,
          32.5312
        ]
      },
      "properties": {
        "timestamp": "2026-10-04T18:02:00",
        "speed_kmh": 47,
        "vehicle_id": "AUTO-DEMO-01"
      }
    },
    {
      "type": "Feature",
      "geometry": {
        "type": "Point",
        "coordinates": [
          -116.9573,
          32.53168
        ]
      },
      "properties": {
        "timestamp": "2026-10-04T18:02:20",
        "speed_kmh": 44,
        "vehicle_id": "AUTO-DEMO-01"
      }
    },
    {
      "type": "Feature",
      "geometry": {
        "type": "Point",
        "coordinates": [
          -116.9529,
          32.53215
        ]
      },
      "properties": {
        "timestamp": "2026-10-04T18:02:40",
        "speed_kmh": 40,
        "vehicle_id": "AUTO-DEMO-01"
      }
    },
    {
      "type": "Feature",
      "geometry": {
        "type": "Point",
        "coordinates": [
          -116.9486,
          32.53265
        ]
      },
      "properties": {
        "timestamp": "2026-10-04T18:03:00",
        "speed_kmh": 38,
        "vehicle_id": "AUTO-DEMO-01"
      }
    },
    {
      "type": "Feature",
      "geometry": {
        "type": "Point",
        "coordinates": [
          -116.9443,
          32.5331
        ]
      },
      "properties": {
        "timestamp": "2026-10-04T18:03:20",
        "speed_kmh": 36,
        "vehicle_id": "AUTO-DEMO-01"
      }
    },
    {
      "type": "Feature",
      "geometry": {
        "type": "Point",
        "coordinates": [
          -116.9401,
          32.5336
        ]
      },
      "properties": {
        "timestamp": "2026-10-04T18:03:40",
        "speed_kmh": 33,
        "vehicle_id": "AUTO-DEMO-01"
      }
    },
    {
      "type": "Feature",
      "geometry": {
        "type": "Point",
        "coordinates": [
          -116.936,
          32.53405
        ]
      },
      "properties": {
        "timestamp": "2026-10-04T18:04:00",
        "speed_kmh": 28,
        "vehicle_id": "AUTO-DEMO-01"
      }
    },
    {
      "type": "Feature",
      "geometry": {
        "type": "Point",
        "coordinates": [
          -116.9324,
          32.53448
        ]
      },
      "properties": {
        "timestamp": "2026-10-04T18:04:20",
        "speed_kmh": 22,
        "vehicle_id": "AUTO-DEMO-01"
      }
    },
    {
      "type": "Feature",
      "geometry": {
        "type": "Point",
        "coordinates": [
          -116.9297,
          32.53485
        ]
      },
      "properties": {
        "timestamp": "2026-10-04T18:04:40",
        "speed_kmh": 12,
        "vehicle_id": "AUTO-DEMO-01"
      }
    },
    {
      "type": "Feature",
      "geometry": {
        "type": "Point",
        "coordinates": [
          -116.92768,
          32.53529
        ]
      },
      "properties": {
        "timestamp": "2026-10-04T18:05:00",
        "speed_kmh": 0,
        "vehicle_id": "AUTO-DEMO-01"
      }
    }
  ]
}
